[{"OBJECT_NAME":"STARLINK-32017","OBJECT_ID":"2024-111S","EPOCH":"2026-03-09T10:24:29.632320","MEAN_MOTION":15.30188427,"ECCENTRICITY":0.00012116,"INCLINATION":53.1598,"RA_OF_ASC_NODE":76.8789,"ARG_OF_PERICENTER":70.1319,"MEAN_ANOMALY":289.9812,"EPHEMERIS_TYPE":0,"CLASSIFICATION_TYPE":"U","NORAD_CAT_ID":60032,"ELEMENT_SET_NO":999,"REV_AT_EPOCH":9899,"BSTAR":-2.9136899e-5,"MEAN_MOTION_DOT":-1.222e-5,"MEAN_MOTION_DDOT":0},{"OBJECT_NAME":"OBJECT BE","OBJECT_ID":"2025-313BE","EPOCH":"2026-03-09T16:43:59.380320","MEAN_MOTION":15.29801687,"ECCENTRICITY":0.00072083,"INCLINATION":97.3989,"RA_OF_ASC_NODE":145.3568,"ARG_OF_PERICENTER":335.3714,"MEAN_ANOMALY":24.7181,"EPHEMERIS_TYPE":0,"CLASSIFICATION_TYPE":"U","NORAD_CAT_ID":67482,"ELEMENT_SET_NO":999,"REV_AT_EPOCH":797,"BSTAR":0.0026504328,"MEAN_MOTION_DOT":0.00077178,"MEAN_MOTION_DDOT":0}]
